start=new Date('2022-11-15T00:00:00.000Z').valueOf();
sats=[{"MEAN_ELEMENT_THEORY":"SGP4","RCS_SIZE":"LARGE","MEAN_MOTION_DDOT":"0.0000000000000","EPOCH":"2022-11-14T20:43:40.440864","TLE_LINE1":"1 52550U 22051T   22318.86366251 -.00000255  00000-0  21146-5 0  9992","MEAN_ANOMALY":"321.7552","SEMIMAJOR_AXIS":"6917.873","OBJECT_ID":"2022-051T","RA_OF_ASC_NODE":"164.7329","SITE":"AFWTR","LAUNCH_DATE":"2022-05-13","ARG_OF_PERICENTER":"38.3611","REV_AT_EPOCH":"2872","ELEMENT_SET_NO":"999","ECCENTRICITY":"0.00024040","CENTER_NAME":"EARTH","OBJECT_NAME":"STARLINK-3965","FILE":"3656212","INCLINATION":"53.2173","PERIAPSIS":"538.075","PERIOD":"95.437","GP_ID":"217793373","MEAN_MOTION_DOT":"-0.00000255","APOAPSIS":"541.401","BSTAR":"0.00000211460000","NORAD_CAT_ID":"52550","REF_FRAME":"TEME","CLASSIFICATION_TYPE":"U","EPHEMERIS_TYPE":"0","TLE_LINE2":"2 52550  53.2173 164.7329 0002404  38.3611 321.7552 15.08842289 28725","OBJECT_TYPE":"PAYLOAD","COUNTRY_CODE":"US","DECAY_DATE":null,"TIME_SYSTEM":"UTC","MEAN_MOTION":"15.08842289"},{"MEAN_MOTION_DDOT":"0.0000000000000","MEAN_ELEMENT_THEORY":"SGP4","RCS_SIZE":"LARGE","MEAN_ANOMALY":"311.7438","EPOCH":"2022-11-14T22:29:38.439744","TLE_LINE1":"1 52551U 22051U   22318.93725046  .00001879  00000-0  13614-3 0  9993","SEMIMAJOR_AXIS":"6917.863","OBJECT_ID":"2022-051U","LAUNCH_DATE":"2022-05-13","SITE":"AFWTR","RA_OF_ASC_NODE":"164.4058","REV_AT_EPOCH":"2873","ELEMENT_SET_NO":"999","ECCENTRICITY":"0.00021050","CENTER_NAME":"EARTH","ARG_OF_PERICENTER":"48.3734","INCLINATION":"53.2188","FILE":"3656212","OBJECT_NAME":"STARLINK-3969","PERIAPSIS":"538.272","GP_ID":"217793546","PERIOD":"95.437","MEAN_MOTION_DOT":"0.00001879","APOAPSIS":"541.184","BSTAR":"0.00013614000000","REF_FRAME":"TEME","NORAD_CAT_ID":"52551","CLASSIFICATION_TYPE":"U","EPHEMERIS_TYPE":"0","TLE_LINE2":"2 52551  53.2188 164.4058 0002105  48.3734 311.7438 15.08845692 28737","DECAY_DATE":null,"TIME_SYSTEM":"UTC","OBJECT_TYPE":"PAYLOAD","COUNTRY_CODE":"US","MEAN_MOTION":"15.08845692"},{"PERIAPSIS":"538.091","PERIOD":"95.437","GP_ID":"217786327","ARG_OF_PERICENTER":"36.9889","REV_AT_EPOCH":"2863","ELEMENT_SET_NO":"999","ECCENTRICITY":"0.00023840","CENTER_NAME":"EARTH","OBJECT_NAME":"STARLINK-3966","FILE":"3656014","INCLINATION":"53.2169","SEMIMAJOR_AXIS":"6917.875","OBJECT_ID":"2022-051V","RA_OF_ASC_NODE":"165.3793","SITE":"AFWTR","LAUNCH_DATE":"2022-05-13","MEAN_ELEMENT_THEORY":"SGP4","RCS_SIZE":"LARGE","MEAN_MOTION_DDOT":"0.0000000000000","EPOCH":"2022-11-14T17:16:59.075616","TLE_LINE1":"1 52552U 22051V   22318.72012819  .00000074  00000-0  22754-4 0  9990","MEAN_ANOMALY":"323.1267","OBJECT_TYPE":"PAYLOAD","COUNTRY_CODE":"US","TIME_SYSTEM":"UTC","DECAY_DATE":null,"MEAN_MOTION":"15.08841675","EPHEMERIS_TYPE":"0","TLE_LINE2":"2 52552  53.2169 165.3793 0002384  36.9889 323.1267 15.08841675 28639","BSTAR":"0.00002275400000","NORAD_CAT_ID":"52552","REF_FRAME":"TEME","CLASSIFICATION_TYPE":"U","MEAN_MOTION_DOT":"0.00000074","APOAPSIS":"541.389"},{"TLE_LINE2":"2 52553  53.2182 164.4188 0002427  39.6335 320.4834 15.08835450 28732","EPHEMERIS_TYPE":"0","MEAN_MOTION":"15.08835450","DECAY_DATE":null,"TIME_SYSTEM":"UTC","OBJECT_TYPE":"PAYLOAD","COUNTRY_CODE":"US","APOAPSIS":"541.438","MEAN_MOTION_DOT":"-0.00000656","CLASSIFICATION_TYPE":"U","REF_FRAME":"TEME","NORAD_CAT_ID":"52553","BSTAR":"-0.00002310600000","FILE":"3656212","INCLINATION":"53.2182","OBJECT_NAME":"STARLINK-3858","REV_AT_EPOCH":"2873","ELEMENT_SET_NO":"999","ECCENTRICITY":"0.00024270","CENTER_NAME":"EARTH","ARG_OF_PERICENTER":"39.6335","GP_ID":"217793368","PERIOD":"95.438","PERIAPSIS":"538.080","MEAN_ANOMALY":"320.4834","EPOCH":"2022-11-14T22:24:20.547360","TLE_LINE1":"1 52553U 22051W   22318.93357115 -.00000656  00000-0 -23106-4 0  9995","MEAN_MOTION_DDOT":"0.0000000000000","MEAN_ELEMENT_THEORY":"SGP4","RCS_SIZE":"LARGE","LAUNCH_DATE":"2022-05-13","SITE":"AFWTR","RA_OF_ASC_NODE":"164.4188","SEMIMAJOR_AXIS":"6917.894","OBJECT_ID":"2022-051W"},{"EPHEMERIS_TYPE":"0","TLE_LINE2":"2 52554  53.2145 170.4460 0002055  41.6109 318.5039 15.08828140 28554","DECAY_DATE":null,"TIME_SYSTEM":"UTC","COUNTRY_CODE":"US","OBJECT_TYPE":"PAYLOAD","MEAN_MOTION":"15.08828140","MEAN_MOTION_DOT":"-0.00001642","APOAPSIS":"541.203","BSTAR":"-0.00008507400000","CLASSIFICATION_TYPE":"U","REF_FRAME":"TEME","NORAD_CAT_ID":"52554","ELEMENT_SET_NO":"999","ECCENTRICITY":"0.00020550","CENTER_NAME":"EARTH","REV_AT_EPOCH":"2855","ARG_OF_PERICENTER":"41.6109","FILE":"3656014","INCLINATION":"53.2145","OBJECT_NAME":"STARLINK-3770","PERIAPSIS":"538.360","GP_ID":"217786809","PERIOD":"95.438","MEAN_MOTION_DDOT":"0.0000000000000","RCS_SIZE":"LARGE","MEAN_ELEMENT_THEORY":"SGP4","MEAN_ANOMALY":"318.5039","TLE_LINE1":"1 52554U 22051X   22318.70680935 -.00001642  00000-0 -85074-4 0  9998","EPOCH":"2022-11-14T16:57:48.327840","OBJECT_ID":"2022-051X","SEMIMAJOR_AXIS":"6917.917","LAUNCH_DATE":"2022-05-13","RA_OF_ASC_NODE":"170.4460","SITE":"AFWTR"},{"CLASSIFICATION_TYPE":"U","REF_FRAME":"TEME","NORAD_CAT_ID":"52555","BSTAR":"-0.00006722200000","APOAPSIS":"541.108","MEAN_MOTION_DOT":"-0.00001358","MEAN_MOTION":"15.08833173","TIME_SYSTEM":"UTC","DECAY_DATE":null,"COUNTRY_CODE":"US","OBJECT_TYPE":"PAYLOAD","TLE_LINE2":"2 52555  53.2183 164.7450 0001940  50.0985 310.0177 15.08833173 28721","EPHEMERIS_TYPE":"0","LAUNCH_DATE":"2022-05-13","SITE":"AFWTR","RA_OF_ASC_NODE":"164.7450","OBJECT_ID":"2022-051Y","SEMIMAJOR_AXIS":"6917.901","MEAN_ANOMALY":"310.0177","TLE_LINE1":"1 52555U 22051Y   22318.85997662 -.00001358  00000-0 -67222-4 0  9992","EPOCH":"2022-11-14T20:38:21.979968","MEAN_MOTION_DDOT":"0.0000000000000","RCS_SIZE":"LARGE","MEAN_ELEMENT_THEORY":"SGP4","GP_ID":"217793541","PERIOD":"95.438","PERIAPSIS":"538.424","FILE":"3656212","INCLINATION":"53.2183","OBJECT_NAME":"STARLINK-3949","ELEMENT_SET_NO":"999","ECCENTRICITY":"0.00019400","CENTER_NAME":"EARTH","REV_AT_EPOCH":"2872","ARG_OF_PERICENTER":"50.0985"},{"GP_ID":"217786828","PERIOD":"95.406","PERIAPSIS":"537.290","INCLINATION":"53.2162","FILE":"3656014","OBJECT_NAME":"STARLINK-3763","ECCENTRICITY":"0.00013510","ELEMENT_SET_NO":"999","CENTER_NAME":"EARTH","REV_AT_EPOCH":"2856","ARG_OF_PERICENTER":"115.6260","LAUNCH_DATE":"2022-05-13","RA_OF_ASC_NODE":"170.0676","SITE":"AFWTR","OBJECT_ID":"2022-051Z","SEMIMAJOR_AXIS":"6916.359","MEAN_ANOMALY":"244.4872","TLE_LINE1":"1 52556U 22051Z   22318.75206737  .00006201  00000-0  40193-3 0  9995","EPOCH":"2022-11-14T18:02:58.620768","MEAN_MOTION_DDOT":"0.0000000000000","RCS_SIZE":"LARGE","MEAN_ELEMENT_THEORY":"SGP4","MEAN_MOTION":"15.09337769","TIME_SYSTEM":"UTC","DECAY_DATE":null,"COUNTRY_CODE":"US","OBJECT_TYPE":"PAYLOAD","TLE_LINE2":"2 52556  53.2162 170.0676 0001351 115.6260 244.4872 15.09337769 28564","EPHEMERIS_TYPE":"0","REF_FRAME":"TEME","CLASSIFICATION_TYPE":"U","NORAD_CAT_ID":"52556","BSTAR":"0.00040193000000","APOAPSIS":"539.159","MEAN_MOTION_DOT":"0.00006201"},{"LAUNCH_DATE":"2022-05-13","RA_OF_ASC_NODE":"165.4017","SITE":"AFWTR","OBJECT_ID":"2022-051AA","SEMIMAJOR_AXIS":"6917.891","MEAN_ANOMALY":"306.9419","TLE_LINE1":"1 52557U 22051AA  22318.71646153 -.00000131  00000-0  98883-5 0  9990","EPOCH":"2022-11-14T17:11:42.276192","MEAN_MOTION_DDOT":"0.0000000000000","RCS_SIZE":"LARGE","MEAN_ELEMENT_THEORY":"SGP4","GP_ID":"217786578","PERIOD":"95.438","PERIAPSIS":"538.539","INCLINATION":"53.2187","FILE":"3656014","OBJECT_NAME":"STARLINK-3943","ECCENTRICITY":"0.00017590","ELEMENT_SET_NO":"999","CENTER_NAME":"EARTH","REV_AT_EPOCH":"2863","ARG_OF_PERICENTER":"53.1734","REF_FRAME":"TEME","CLASSIFICATION_TYPE":"U","NORAD_CAT_ID":"52557","BSTAR":"0.00000988830000","APOAPSIS":"540.972","MEAN_MOTION_DOT":"-0.00000131","MEAN_MOTION":"15.08836652","DECAY_DATE":null,"TIME_SYSTEM":"UTC","COUNTRY_CODE":"US","OBJECT_TYPE":"PAYLOAD","TLE_LINE2":"2 52557  53.2187 165.4017 0001759  53.1734 306.9419 15.08836652 28636","EPHEMERIS_TYPE":"0"},{"MEAN_MOTION":"15.08843106","OBJECT_TYPE":"PAYLOAD","COUNTRY_CODE":"US","TIME_SYSTEM":"UTC","DECAY_DATE":null,"TLE_LINE2":"2 52558  53.2167 155.3825 0002021  41.8771 318.2376 15.08843106 28762","EPHEMERIS_TYPE":"0","CLASSIFICATION_TYPE":"U","REF_FRAME":"TEME","NORAD_CAT_ID":"52558","BSTAR":"0.00003904100000","APOAPSIS":"541.134","MEAN_MOTION_DOT":"0.00000333","PERIOD":"95.437","GP_ID":"217787310","PERIAPSIS":"538.338","OBJECT_NAME":"STARLINK-3954","FILE":"3656014","INCLINATION":"53.2167","ARG_OF_PERICENTER":"41.8771","REV_AT_EPOCH":"2876","CENTER_NAME":"EARTH","ELEMENT_SET_NO":"999","ECCENTRICITY":"0.00020210","SITE":"AFWTR","RA_OF_ASC_NODE":"155.3825","LAUNCH_DATE":"2022-05-13","OBJECT_ID":"2022-051AB","SEMIMAJOR_AXIS":"6917.871","EPOCH":"2022-11-14T17:13:00.795648","TLE_LINE1":"1 52558U 22051AB  22318.71737032  .00000333  00000-0  39041-4 0  9991","MEAN_ANOMALY":"318.2376","MEAN_ELEMENT_THEORY":"SGP4","RCS_SIZE":"LARGE","MEAN_MOTION_DDOT":"0.0000000000000"},{"BSTAR":"0.00035616000000","CLASSIFICATION_TYPE":"U","REF_FRAME":"TEME","NORAD_CAT_ID":"52559","MEAN_MOTION_DOT":"0.00005386","APOAPSIS":"540.773","DECAY_DATE":null,"TIME_SYSTEM":"UTC","COUNTRY_CODE":"US","OBJECT_TYPE":"PAYLOAD","MEAN_MOTION":"15.08847291","EPHEMERIS_TYPE":"0","TLE_LINE2":"2 52559  53.2156 155.4145 0001517  67.0313 293.0839 15.08847291 28761","SEMIMAJOR_AXIS":"6917.858","OBJECT_ID":"2022-051AC","LAUNCH_DATE":"2022-05-13","SITE":"AFWTR","RA_OF_ASC_NODE":"155.4145","MEAN_MOTION_DDOT":"0.0000000000000","RCS_SIZE":"LARGE","MEAN_ELEMENT_THEORY":"SGP4","MEAN_ANOMALY":"293.0839","TLE_LINE1":"1 52559U 22051AC  22318.71098401  .00005386  00000-0  35616-3 0  9998","EPOCH":"2022-11-14T17:03:49.018464","PERIAPSIS":"538.674","GP_ID":"217785577","PERIOD":"95.437","ECCENTRICITY":"0.00015170","ELEMENT_SET_NO":"999","CENTER_NAME":"EARTH","REV_AT_EPOCH":"2876","ARG_OF_PERICENTER":"67.0313","INCLINATION":"53.2156","FILE":"3656014","OBJECT_NAME":"STARLINK-3953"}];
